start=new Date('2022-03-19T00:00:00.000Z').valueOf();
sats=[{"MEAN_MOTION":"15.06399886","PERIAPSIS":"546.129","INCLINATION":"53.0561","OBJECT_ID":"2020-006AE","TLE_LINE2":"2 45072  53.0561 303.8468 0001567  56.1250 303.9888 15.06399886117924","PERIOD":"95.592","SEMIMAJOR_AXIS":"6925.349","OBJECT_TYPE":"PAYLOAD","FILE":"3364757","GP_ID":"199100881","REV_AT_EPOCH":"11792","MEAN_ELEMENT_THEORY":"SGP4","BSTAR":"0.00030930000000","SITE":"AFETR","ARG_OF_PERICENTER":"56.1250","CLASSIFICATION_TYPE":"U","RA_OF_ASC_NODE":"303.8468","OBJECT_NAME":"STARLINK-1168","COUNTRY_CODE":"US","ELEMENT_SET_NO":"999","NORAD_CAT_ID":"45072","RCS_SIZE":"LARGE","DECAY_DATE":null,"MEAN_MOTION_DDOT":"0.0000000000000","TLE_LINE1":"1 45072U 20006AE  22077.92404833  .00004328  00000-0  30930-3 0  9992","MEAN_ANOMALY":"303.9888","CENTER_NAME":"EARTH","MEAN_MOTION_DOT":"0.00004328","LAUNCH_DATE":"2020-01-29","EPOCH":"2022-03-18T22:10:37.775712","ECCENTRICITY":"0.00015670","EPHEMERIS_TYPE":"0","APOAPSIS":"548.299","REF_FRAME":"TEME","TIME_SYSTEM":"UTC"},{"MEAN_MOTION_DOT":"0.00003334","CENTER_NAME":"EARTH","TIME_SYSTEM":"UTC","APOAPSIS":"548.431","REF_FRAME":"TEME","EPOCH":"2022-03-18T21:12:15.317568","ECCENTRICITY":"0.00017660","EPHEMERIS_TYPE":"0","LAUNCH_DATE":"2020-01-29","DECAY_DATE":null,"MEAN_ANOMALY":"303.4773","TLE_LINE1":"1 45073U 20006AF  22077.88351062  .00003334  00000-0  24261-3 0  9999","MEAN_MOTION_DDOT":"0.0000000000000","COUNTRY_CODE":"US","ARG_OF_PERICENTER":"56.6385","OBJECT_NAME":"STARLINK-1170","CLASSIFICATION_TYPE":"U","RA_OF_ASC_NODE":"304.0216","SITE":"AFETR","BSTAR":"0.00024261000000","RCS_SIZE":"LARGE","ELEMENT_SET_NO":"999","NORAD_CAT_ID":"45073","PERIOD":"95.592","PERIAPSIS":"545.985","INCLINATION":"53.0546","OBJECT_ID":"2020-006AF","TLE_LINE2":"2 45073  53.0546 304.0216 0001766  56.6385 303.4773 15.06401680117910","MEAN_MOTION":"15.06401680","REV_AT_EPOCH":"11791","MEAN_ELEMENT_THEORY":"SGP4","OBJECT_TYPE":"PAYLOAD","FILE":"3364757","GP_ID":"199102131","SEMIMAJOR_AXIS":"6925.343"},{"DECAY_DATE":null,"MEAN_MOTION_DDOT":"0.0000000000000","TLE_LINE1":"1 45074U 20006AG  22077.86877143  .00006569  00000-0  45939-3 0  9999","MEAN_ANOMALY":"285.8616","MEAN_MOTION_DOT":"0.00006569","CENTER_NAME":"EARTH","REF_FRAME":"TEME","APOAPSIS":"548.241","TIME_SYSTEM":"UTC","LAUNCH_DATE":"2020-01-29","EPHEMERIS_TYPE":"0","EPOCH":"2022-03-18T20:51:01.851552","ECCENTRICITY":"0.00015150","PERIOD":"95.592","MEAN_MOTION":"15.06406972","TLE_LINE2":"2 45074  53.0521 304.1103 0001515  74.2540 285.8616 15.06406972117919","PERIAPSIS":"546.143","OBJECT_ID":"2020-006AG","INCLINATION":"53.0521","FILE":"3364757","GP_ID":"199101870","OBJECT_TYPE":"PAYLOAD","REV_AT_EPOCH":"11791","MEAN_ELEMENT_THEORY":"SGP4","SEMIMAJOR_AXIS":"6925.327","RA_OF_ASC_NODE":"304.1103","CLASSIFICATION_TYPE":"U","OBJECT_NAME":"STARLINK-1172","ARG_OF_PERICENTER":"74.2540","COUNTRY_CODE":"US","BSTAR":"0.00045939000000","SITE":"AFETR","RCS_SIZE":"LARGE","ELEMENT_SET_NO":"999","NORAD_CAT_ID":"45074"},{"MEAN_MOTION_DDOT":"0.0000000000000","TLE_LINE1":"1 45075U 20006AH  22077.90194844  .00007964  00000-0  55278-3 0  9992","MEAN_ANOMALY":"289.9035","DECAY_DATE":null,"APOAPSIS":"548.252","REF_FRAME":"TEME","TIME_SYSTEM":"UTC","LAUNCH_DATE":"2020-01-29","EPHEMERIS_TYPE":"0","EPOCH":"2022-03-18T21:38:48.345216","ECCENTRICITY":"0.00015450","MEAN_MOTION_DOT":"0.00007964","CENTER_NAME":"EARTH","FILE":"3364757","GP_ID":"199101131","OBJECT_TYPE":"PAYLOAD","MEAN_ELEMENT_THEORY":"SGP4","REV_AT_EPOCH":"11792","SEMIMAJOR_AXIS":"6925.317","PERIOD":"95.591","MEAN_MOTION":"15.06410428","TLE_LINE2":"2 45075  53.0529 303.9481 0001545  70.2120 289.9035 15.06410428117929","PERIAPSIS":"546.112","OBJECT_ID":"2020-006AH","INCLINATION":"53.0529","RCS_SIZE":"LARGE","ELEMENT_SET_NO":"999","NORAD_CAT_ID":"45075","OBJECT_NAME":"STARLINK-1174","CLASSIFICATION_TYPE":"U","RA_OF_ASC_NODE":"303.9481","ARG_OF_PERICENTER":"70.2120","COUNTRY_CODE":"US","BSTAR":"0.00055278000000","SITE":"AFETR"},{"NORAD_CAT_ID":"45076","ELEMENT_SET_NO":"999","RCS_SIZE":"LARGE","SITE":"AFETR","BSTAR":"0.00065115000000","COUNTRY_CODE":"US","RA_OF_ASC_NODE":"303.9136","CLASSIFICATION_TYPE":"U","OBJECT_NAME":"STARLINK-1180","ARG_OF_PERICENTER":"71.2555","SEMIMAJOR_AXIS":"6925.317","MEAN_ELEMENT_THEORY":"SGP4","REV_AT_EPOCH":"11792","FILE":"3364757","GP_ID":"199101381","OBJECT_TYPE":"PAYLOAD","TLE_LINE2":"2 45076  53.0541 303.9136 0001628  71.2555 288.8611 15.06410459117928","PERIAPSIS":"546.054","INCLINATION":"53.0541","OBJECT_ID":"2020-006AJ","MEAN_MOTION":"15.06410459","PERIOD":"95.591","EPHEMERIS_TYPE":"0","ECCENTRICITY":"0.00016280","EPOCH":"2022-03-18T21:49:25.269600","LAUNCH_DATE":"2020-01-29","TIME_SYSTEM":"UTC","APOAPSIS":"548.309","REF_FRAME":"TEME","CENTER_NAME":"EARTH","MEAN_MOTION_DOT":"0.00009433","MEAN_ANOMALY":"288.8611","TLE_LINE1":"1 45076U 20006AJ  22077.90932025  .00009433  00000-0  65115-3 0  9998","MEAN_MOTION_DDOT":"0.0000000000000","DECAY_DATE":null},{"MEAN_ANOMALY":"83.3135","TLE_LINE1":"1 45077U 20006AK  22077.66593665  .00002907  11066-4  19832-4 0  9998","MEAN_MOTION_DDOT":"0.0000110660000","DECAY_DATE":null,"TIME_SYSTEM":"UTC","REF_FRAME":"TEME","APOAPSIS":"305.066","EPHEMERIS_TYPE":"0","ECCENTRICITY":"0.00080640","EPOCH":"2022-03-18T15:58:56.926560","LAUNCH_DATE":"2020-01-29","MEAN_MOTION_DOT":"0.00002907","CENTER_NAME":"EARTH","MEAN_ELEMENT_THEORY":"SGP4","REV_AT_EPOCH":"11897","GP_ID":"199101632","FILE":"3364757","OBJECT_TYPE":"PAYLOAD","SEMIMAJOR_AXIS":"6677.816","PERIOD":"90.513","TLE_LINE2":"2 45077  53.0502 227.5342 0008064 276.6973  83.3135 15.90929936118975","OBJECT_ID":"2020-006AK","PERIAPSIS":"294.296","INCLINATION":"53.0502","MEAN_MOTION":"15.90929936","RCS_SIZE":"LARGE","ELEMENT_SET_NO":"999","NORAD_CAT_ID":"45077","COUNTRY_CODE":"US","CLASSIFICATION_TYPE":"U","RA_OF_ASC_NODE":"227.5342","OBJECT_NAME":"STARLINK-1182","ARG_OF_PERICENTER":"276.6973","SITE":"AFETR","BSTAR":"0.00001983200000"},{"CENTER_NAME":"EARTH","MEAN_MOTION_DOT":"0.00004206","EPHEMERIS_TYPE":"0","ECCENTRICITY":"0.00014730","EPOCH":"2022-03-18T22:15:57.698496","LAUNCH_DATE":"2020-01-29","TIME_SYSTEM":"UTC","APOAPSIS":"548.246","REF_FRAME":"TEME","DECAY_DATE":null,"TLE_LINE1":"1 45078U 20006AL  22077.92775114  .00004206  00000-0  30115-3 0  9991","MEAN_ANOMALY":"294.5660","MEAN_MOTION_DDOT":"0.0000000000000","SITE":"AFETR","BSTAR":"0.00030115000000","COUNTRY_CODE":"US","CLASSIFICATION_TYPE":"U","OBJECT_NAME":"STARLINK-1177","RA_OF_ASC_NODE":"303.8438","ARG_OF_PERICENTER":"65.5483","NORAD_CAT_ID":"45078","ELEMENT_SET_NO":"999","RCS_SIZE":"LARGE","TLE_LINE2":"2 45078  53.0544 303.8438 0001473  65.5483 294.5660 15.06396020117915","PERIAPSIS":"546.206","OBJECT_ID":"2020-006AL","INCLINATION":"53.0544","MEAN_MOTION":"15.06396020","PERIOD":"95.592","SEMIMAJOR_AXIS":"6925.361","REV_AT_EPOCH":"11791","MEAN_ELEMENT_THEORY":"SGP4","GP_ID":"199102370","FILE":"3364757","OBJECT_TYPE":"PAYLOAD"},{"DECAY_DATE":null,"MEAN_MOTION_DDOT":"0.0000000000000","TLE_LINE1":"1 45079U 20006AM  22077.90562216  .00003759  00000-0  27100-3 0  9999","MEAN_ANOMALY":"293.8966","MEAN_MOTION_DOT":"0.00003759","CENTER_NAME":"EARTH","REF_FRAME":"TEME","APOAPSIS":"548.181","TIME_SYSTEM":"UTC","LAUNCH_DATE":"2020-01-29","ECCENTRICITY":"0.00014720","EPOCH":"2022-03-18T21:44:05.754624","EPHEMERIS_TYPE":"0","PERIOD":"95.591","MEAN_MOTION":"15.06416948","OBJECT_ID":"2020-006AM","PERIAPSIS":"546.142","INCLINATION":"53.0530","TLE_LINE2":"2 45079  53.0530 303.9246 0001472  66.2177 293.8966 15.06416948117919","OBJECT_TYPE":"PAYLOAD","GP_ID":"199100632","FILE":"3364757","MEAN_ELEMENT_THEORY":"SGP4","REV_AT_EPOCH":"11791","SEMIMAJOR_AXIS":"6925.297","ARG_OF_PERICENTER":"66.2177","CLASSIFICATION_TYPE":"U","RA_OF_ASC_NODE":"303.9246","OBJECT_NAME":"STARLINK-1149","COUNTRY_CODE":"US","BSTAR":"0.00027100000000","SITE":"AFETR","RCS_SIZE":"LARGE","ELEMENT_SET_NO":"999","NORAD_CAT_ID":"45079"},{"ELEMENT_SET_NO":"999","NORAD_CAT_ID":"45080","RCS_SIZE":"LARGE","BSTAR":"0.00069596000000","SITE":"AFETR","CLASSIFICATION_TYPE":"U","OBJECT_NAME":"STARLINK-1153","RA_OF_ASC_NODE":"303.8956","ARG_OF_PERICENTER":"55.7524","COUNTRY_CODE":"US","SEMIMAJOR_AXIS":"6925.317","GP_ID":"199100882","FILE":"3364757","OBJECT_TYPE":"PAYLOAD","REV_AT_EPOCH":"11792","MEAN_ELEMENT_THEORY":"SGP4","MEAN_MOTION":"15.06410253","TLE_LINE2":"2 45080  53.0540 303.8956 0001741  55.7524 304.3630 15.06410253117927","PERIAPSIS":"545.976","OBJECT_ID":"2020-006AN","INCLINATION":"53.0540","PERIOD":"95.591","LAUNCH_DATE":"2020-01-29","EPHEMERIS_TYPE":"0","EPOCH":"2022-03-18T21:54:43.761600","ECCENTRICITY":"0.00017410","REF_FRAME":"TEME","APOAPSIS":"548.388","TIME_SYSTEM":"UTC","CENTER_NAME":"EARTH","MEAN_MOTION_DOT":"0.00010103","MEAN_MOTION_DDOT":"0.0000000000000","MEAN_ANOMALY":"304.3630","TLE_LINE1":"1 45080U 20006AN  22077.91300650  .00010103  00000-0  69596-3 0  9990","DECAY_DATE":null},{"CENTER_NAME":"EARTH","MEAN_MOTION_DOT":"0.00007928","LAUNCH_DATE":"2020-01-29","ECCENTRICITY":"0.00016590","EPOCH":"2022-03-18T21:22:51.545568","EPHEMERIS_TYPE":"0","REF_FRAME":"TEME","APOAPSIS":"548.334","TIME_SYSTEM":"UTC","DECAY_DATE":null,"MEAN_MOTION_DDOT":"0.0000000000000","TLE_LINE1":"1 45081U 20006AP  22077.89087437  .00007928  00000-0  55039-3 0  9991","MEAN_ANOMALY":"292.9341","BSTAR":"0.00055039000000","SITE":"AFETR","ARG_OF_PERICENTER":"67.1823","CLASSIFICATION_TYPE":"U","OBJECT_NAME":"STARLINK-1151","RA_OF_ASC_NODE":"304.0106","COUNTRY_CODE":"US","ELEMENT_SET_NO":"999","NORAD_CAT_ID":"45081","RCS_SIZE":"LARGE","MEAN_MOTION":"15.06409304","PERIAPSIS":"546.036","OBJECT_ID":"2020-006AP","INCLINATION":"53.0523","TLE_LINE2":"2 45081  53.0523 304.0106 0001659  67.1823 292.9341 15.06409304117922","PERIOD":"95.592","SEMIMAJOR_AXIS":"6925.320","OBJECT_TYPE":"PAYLOAD","GP_ID":"199102132","FILE":"3364757","REV_AT_EPOCH":"11792","MEAN_ELEMENT_THEORY":"SGP4"}];
